CCSDS_OMM_VERS = 2.0
CREATION_DATE  = 
ORIGINATOR     = 

OBJECT_NAME    = SL-4 R/B
OBJECT_ID      = 2014-021B
CENTER_NAME    = EARTH
REF_FRAME      = TEME
TIME_SYSTEM    = UTC
MEAN_ELEMENT_THEORY = SGP/SGP4

EPOCH          = 2026-02-02T16:25:28.848288
MEAN_MOTION    = 15.38071839
ECCENTRICITY   = .00990467
INCLINATION    = 51.6071
RA_OF_ASC_NODE = 147.8979
ARG_OF_PERICENTER = 335.3955
MEAN_ANOMALY   = 24.2319

EPHEMERIS_TYPE = 0
CLASSIFICATION_TYPE = U
NORAD_CAT_ID   = 39679
ELEMENT_SET_NO = 999
REV_AT_EPOCH   = 65088
BSTAR          = .27224513E-3
MEAN_MOTION_DOT = .11829E-3
MEAN_MOTION_DDOT = 0

CCSDS_OMM_VERS = 2.0
CREATION_DATE  = 
ORIGINATOR     = 

OBJECT_NAME    = ALOS-2
OBJECT_ID      = 2014-029A
CENTER_NAME    = EARTH
REF_FRAME      = TEME
TIME_SYSTEM    = UTC
MEAN_ELEMENT_THEORY = SGP/SGP4

EPOCH          = 2026-02-03T07:03:02.197152
MEAN_MOTION    = 14.79471860
ECCENTRICITY   = .00014056
INCLINATION    = 97.9227
RA_OF_ASC_NODE = 133.3862
ARG_OF_PERICENTER = 98.9007
MEAN_ANOMALY   = 261.2364

EPHEMERIS_TYPE = 0
CLASSIFICATION_TYPE = U
NORAD_CAT_ID   = 39766
ELEMENT_SET_NO = 999
REV_AT_EPOCH   = 63178
BSTAR          = .43121848E-4
MEAN_MOTION_DOT = .271E-5
MEAN_MOTION_DDOT = 0

CCSDS_OMM_VERS = 2.0
CREATION_DATE  = 
ORIGINATOR     = 

OBJECT_NAME    = YAOGAN-29
OBJECT_ID      = 2015-069A
CENTER_NAME    = EARTH
REF_FRAME      = TEME
TIME_SYSTEM    = UTC
MEAN_ELEMENT_THEORY = SGP/SGP4

EPOCH          = 2026-02-03T07:34:39.741600
MEAN_MOTION    = 14.82957376
ECCENTRICITY   = .0002922
INCLINATION    = 98.0176
RA_OF_ASC_NODE = 62.6481
ARG_OF_PERICENTER = 93.8228
MEAN_ANOMALY   = 266.3320

EPHEMERIS_TYPE = 0
CLASSIFICATION_TYPE = U
NORAD_CAT_ID   = 41038
ELEMENT_SET_NO = 999
REV_AT_EPOCH   = 55078
BSTAR          = .14896654E-3
MEAN_MOTION_DOT = .1155E-4
MEAN_MOTION_DDOT = 0

CCSDS_OMM_VERS = 2.0
CREATION_DATE  = 
ORIGINATOR     = 

OBJECT_NAME    = ASTRO-H (HITOMI)
OBJECT_ID      = 2016-012A
CENTER_NAME    = EARTH
REF_FRAME      = TEME
TIME_SYSTEM    = UTC
MEAN_ELEMENT_THEORY = SGP/SGP4

EPOCH          = 2026-02-02T20:39:56.506752
MEAN_MOTION    = 15.09743482
ECCENTRICITY   = .00099002
INCLINATION    = 30.9977
RA_OF_ASC_NODE = 221.2612
ARG_OF_PERICENTER = 342.4480
MEAN_ANOMALY   = 17.5815

EPHEMERIS_TYPE = 0
CLASSIFICATION_TYPE = U
NORAD_CAT_ID   = 41337
ELEMENT_SET_NO = 999
REV_AT_EPOCH   = 54696
BSTAR          = .19033784E-3
MEAN_MOTION_DOT = .3244E-4
MEAN_MOTION_DDOT = 0

CCSDS_OMM_VERS = 2.0
CREATION_DATE  = 
ORIGINATOR     = 

OBJECT_NAME    = HXMT (HUIYAN)
OBJECT_ID      = 2017-034A
CENTER_NAME    = EARTH
REF_FRAME      = TEME
TIME_SYSTEM    = UTC
MEAN_ELEMENT_THEORY = SGP/SGP4

EPOCH          = 2026-02-02T22:50:52.030176
MEAN_MOTION    = 15.16993390
ECCENTRICITY   = .00315569
INCLINATION    = 43.0124
RA_OF_ASC_NODE = 209.7313
ARG_OF_PERICENTER = 12.6292
MEAN_ANOMALY   = 347.5340

EPHEMERIS_TYPE = 0
CLASSIFICATION_TYPE = U
NORAD_CAT_ID   = 42758
ELEMENT_SET_NO = 999
REV_AT_EPOCH   = 47726
BSTAR          = .28848999E-3
MEAN_MOTION_DOT = .5638E-4
MEAN_MOTION_DDOT = 0

CCSDS_OMM_VERS = 2.0
CREATION_DATE  = 
ORIGINATOR     = 

OBJECT_NAME    = CZ-2C R/B
OBJECT_ID      = 2018-054D
CENTER_NAME    = EARTH
REF_FRAME      = TEME
TIME_SYSTEM    = UTC
MEAN_ELEMENT_THEORY = SGP/SGP4

EPOCH          = 2026-02-02T11:56:47.231232
MEAN_MOTION    = 15.92041680
ECCENTRICITY   = .00136499
INCLINATION    = 35.1295
RA_OF_ASC_NODE = 186.0608
ARG_OF_PERICENTER = 321.1694
MEAN_ANOMALY   = 38.8063

EPHEMERIS_TYPE = 0
CLASSIFICATION_TYPE = U
NORAD_CAT_ID   = 43521
ELEMENT_SET_NO = 999
REV_AT_EPOCH   = 42325
BSTAR          = .73203505E-3
MEAN_MOTION_DOT = .256766E-2
MEAN_MOTION_DDOT = .25256325E-4

CCSDS_OMM_VERS = 2.0
CREATION_DATE  = 
ORIGINATOR     = 

OBJECT_NAME    = SAOCOM 1A
OBJECT_ID      = 2018-076A
CENTER_NAME    = EARTH
REF_FRAME      = TEME
TIME_SYSTEM    = UTC
MEAN_ELEMENT_THEORY = SGP/SGP4

EPOCH          = 2026-02-03T06:18:07.464096
MEAN_MOTION    = 14.82148974
ECCENTRICITY   = .0001357
INCLINATION    = 97.8857
RA_OF_ASC_NODE = 222.9236
ARG_OF_PERICENTER = 86.9225
MEAN_ANOMALY   = 273.2143

EPHEMERIS_TYPE = 0
CLASSIFICATION_TYPE = U
NORAD_CAT_ID   = 43641
ELEMENT_SET_NO = 999
REV_AT_EPOCH   = 39626
BSTAR          = .36637215E-4
MEAN_MOTION_DOT = .239E-5
MEAN_MOTION_DDOT = 0

CCSDS_OMM_VERS = 2.0
CREATION_DATE  = 
ORIGINATOR     = 

OBJECT_NAME    = H-2A R/B
OBJECT_ID      = 2018-084L
CENTER_NAME    = EARTH
REF_FRAME      = TEME
TIME_SYSTEM    = UTC
MEAN_ELEMENT_THEORY = SGP/SGP4

EPOCH          = 2026-02-03T02:43:21.126144
MEAN_MOTION    = 15.39797196
ECCENTRICITY   = .00262763
INCLINATION    = 98.8754
RA_OF_ASC_NODE = 244.1514
ARG_OF_PERICENTER = 141.8922
MEAN_ANOMALY   = 218.4184

EPHEMERIS_TYPE = 0
CLASSIFICATION_TYPE = U
NORAD_CAT_ID   = 43682
ELEMENT_SET_NO = 999
REV_AT_EPOCH   = 40045
BSTAR          = .50557816E-3
MEAN_MOTION_DOT = .20199E-3
MEAN_MOTION_DDOT = 0

CCSDS_OMM_VERS = 2.0
CREATION_DATE  = 
ORIGINATOR     = 

OBJECT_NAME    = SAOCOM 1B
OBJECT_ID      = 2020-059A
CENTER_NAME    = EARTH
REF_FRAME      = TEME
TIME_SYSTEM    = UTC
MEAN_ELEMENT_THEORY = SGP/SGP4

EPOCH          = 2026-02-03T07:03:08.424864
MEAN_MOTION    = 14.82158242
ECCENTRICITY   = .00013785
INCLINATION    = 97.8856
RA_OF_ASC_NODE = 222.0530
ARG_OF_PERICENTER = 83.5444
MEAN_ANOMALY   = 276.5926

EPHEMERIS_TYPE = 0
CLASSIFICATION_TYPE = U
NORAD_CAT_ID   = 46265
ELEMENT_SET_NO = 999
REV_AT_EPOCH   = 29365
BSTAR          = .99417604E-4
MEAN_MOTION_DOT = .739E-5
MEAN_MOTION_DDOT = 0

CCSDS_OMM_VERS = 2.0
CREATION_DATE  = 
ORIGINATOR     = 

OBJECT_NAME    = CSS (TIANHE)
OBJECT_ID      = 2021-035A
CENTER_NAME    = EARTH
REF_FRAME      = TEME
TIME_SYSTEM    = UTC
MEAN_ELEMENT_THEORY = SGP/SGP4

EPOCH          = 2026-02-03T06:30:01.078848
MEAN_MOTION    = 15.59135359
ECCENTRICITY   = .00062477
INCLINATION    = 41.4675
RA_OF_ASC_NODE = 57.3449
ARG_OF_PERICENTER = 348.4531
MEAN_ANOMALY   = 11.6163

EPHEMERIS_TYPE = 0
CLASSIFICATION_TYPE = U
NORAD_CAT_ID   = 48274
ELEMENT_SET_NO = 999
REV_AT_EPOCH   = 27223
BSTAR          = .22202484E-3
MEAN_MOTION_DOT = .17586E-3
MEAN_MOTION_DDOT = 0

CCSDS_OMM_VERS = 2.0
CREATION_DATE  = 
ORIGINATOR     = 

OBJECT_NAME    = COSMOS 2550
OBJECT_ID      = 2021-056A
CENTER_NAME    = EARTH
REF_FRAME      = TEME
TIME_SYSTEM    = UTC
MEAN_ELEMENT_THEORY = SGP/SGP4

EPOCH          = 2026-01-26T03:10:39.828288
MEAN_MOTION    = 15.33840202
ECCENTRICITY   = .00083094
INCLINATION    = 67.1441
RA_OF_ASC_NODE = 169.6578
ARG_OF_PERICENTER = 269.8947
MEAN_ANOMALY   = 90.1255

EPHEMERIS_TYPE = 0
CLASSIFICATION_TYPE = U
NORAD_CAT_ID   = 48865
ELEMENT_SET_NO = 999
REV_AT_EPOCH   = 25693
BSTAR          = .322698E-6
MEAN_MOTION_DOT = -.181E-5
MEAN_MOTION_DDOT = 0

CCSDS_OMM_VERS = 2.0
CREATION_DATE  = 
ORIGINATOR     = 

OBJECT_NAME    = CZ-2C R/B
OBJECT_ID      = 2022-058K
CENTER_NAME    = EARTH
REF_FRAME      = TEME
TIME_SYSTEM    = UTC
MEAN_ELEMENT_THEORY = SGP/SGP4

EPOCH          = 2026-02-02T16:50:32.094240
MEAN_MOTION    = 15.51767722
ECCENTRICITY   = .00424728
INCLINATION    = 50.1895
RA_OF_ASC_NODE = 137.9301
ARG_OF_PERICENTER = 52.5636
MEAN_ANOMALY   = 307.9186

EPHEMERIS_TYPE = 0
CLASSIFICATION_TYPE = U
NORAD_CAT_ID   = 52794
ELEMENT_SET_NO = 999
REV_AT_EPOCH   = 20469
BSTAR          = .46321673E-3
MEAN_MOTION_DOT = .28893E-3
MEAN_MOTION_DDOT = 0

