SL-4 R/B                
1 39679U 14021B   26033.68436167  .00011829  00000+0  27225-3 0  9998
2 39679  51.6071 147.8979 0099046 335.3955  24.2319 15.38071839650885
ALOS-2                  
1 39766U 14029A   26034.29377543  .00000271  00000+0  43122-4 0  9997
2 39766  97.9227 133.3862 0001405  98.9007 261.2364 14.79471860631784
YAOGAN-29               
1 41038U 15069A   26034.31573775  .00001155  00000+0  14897-3 0  9993
2 41038  98.0176  62.6481 0002922  93.8228 266.3320 14.82957376550782
ASTRO-H (HITOMI)        
1 41337U 16012A   26033.86107068  .00003244  00000+0  19034-3 0  9990
2 41337  30.9977 221.2612 0009900 342.4480  17.5815 15.09743482546964
HXMT (HUIYAN)           
1 42758U 17034A   26033.95199109  .00005638  00000+0  28849-3 0  9993
2 42758  43.0124 209.7313 0031556  12.6292 347.5340 15.16993390477267
CZ-2C R/B               
1 43521U 18054D   26033.49776888  .00256766  25256-4  73204-3 0  9999
2 43521  35.1295 186.0608 0013649 321.1694  38.8063 15.92041680423250
SAOCOM 1A               
1 43641U 18076A   26034.26258639  .00000239  00000+0  36637-4 0  9998
2 43641  97.8857 222.9236 0001357  86.9225 273.2143 14.82148974396264
H-2A R/B                
1 43682U 18084L   26034.11343896  .00020199  00000+0  50558-3 0  9990
2 43682  98.8754 244.1514 0026276 141.8922 218.4184 15.39797196400455
SAOCOM 1B               
1 46265U 20059A   26034.29384751  .00000739  00000+0  99418-4 0  9996
2 46265  97.8856 222.0530 0001378  83.5444 276.5926 14.82158242293658
CSS (TIANHE)            
1 48274U 21035A   26034.27084582  .00017586  00000+0  22202-3 0  9994
2 48274  41.4675  57.3449 0006247 348.4531  11.6163 15.59135359272233
COSMOS 2550             
1 48865U 21056A   26026.13240542 -.00000181  00000+0  32270-6 0  9992
2 48865  67.1441 169.6578 0008309 269.8947  90.1255 15.33840202256938
CZ-2C R/B               
1 52794U 22058K   26033.70176035  .00028893  00000+0  46322-3 0  9996
2 52794  50.1895 137.9301 0042472  52.5636 307.9186 15.51767722204695
